IRIDIUM 14 [+]          
1 25777U 99032A   17346.40869723 -.00000037  00000-0 -20436-4 0  9992
2 25777  86.3959 149.5019 0002016  92.4643 267.6783 14.34218041980224
